QIANFAN-73              
1 63159U 25046A   25300.46300084  .00000038  00000+0  40379-4 0  9993
2 63159  88.9771 324.8169 0013049 255.5400 104.4304 13.50971944 41168
QIANFAN-74              
1 63160U 25046B   25300.52058782  .00000036  00000+0  37146-4 0  9993
2 63160  88.9772 324.6993 0002101  95.2034 264.9357 13.50973835 41232
QIANFAN-75              
1 63161U 25046C   25300.50810279  .00000127  00000+0  17755-3 0  9993
2 63161  88.9774 324.9335 0014143 258.9702 100.9858 13.50982847 41101
QIANFAN-76              
1 63162U 25046D   25300.50413885 -.00000120  00000+0 -20395-3 0  9995
2 63162  88.9771 324.9146 0011749 259.4758 100.5070 13.50971748 41116
QIANFAN-77              
1 63163U 25046E   25300.52786534  .00000152  00000+0  10108-3 0  9996
2 63163  88.9771 323.2987 0013408 218.0230 142.0002 13.96077228 42007
QIANFAN-78              
1 63164U 25046F   25300.47123672  .00000018  00000+0  93333-5 0  9993
2 63164  88.9772 324.7827 0013058 262.2640  97.7029 13.50974091 41182
QIANFAN-79              
1 63165U 25046G   25300.49992334  .00000040  00000+0  43907-4 0  9991
2 63165  88.9776 324.8855 0012765 260.1146  99.8565 13.50973627 41138
QIANFAN-80              
1 63166U 25046H   25300.51648709  .00000094  00000+0  12697-3 0  9999
2 63166  88.9773 324.5918 0011707 265.1312  94.8503 13.50975025 41296
